AEROCUBE 6B             
1 40046U 14033AN  26068.42625992  .00007941  00000+0  66368-3 0  9998
2 40046  97.7129 236.1645 0037452 343.2300  16.7681 14.98232474631816
STARLINK-36148          
1 67005U 25293C   26068.47800075 -.00010338  00000+0 -86095-3 0  9999
2 67005  70.0007  95.0917 0002922 268.3794  91.7030 14.98284410 14858
